{"version": 0.6, "generator": "Overpass API 0.7.62.5 1bd436f1", "osm3s": {"timestamp_osm_base": "2025-04-25T12:26:15Z", "copyright": "The data included in this document is from www.openstreetmap.org. The data is made available under ODbL."}, "elements": [{"type": "node", "id": 25255909, "lat": 48.8479377, "lon": 2.3159813}, {"type": "node", "id": 25256197, "lat": 48.8482847, "lon": 2.3174407, "tags": {"noexit": "yes"}}, {"type": "node", "id": 25256231, "lat": 48.8476978, "lon": 2.3133509}, {"type": "node", "id": 25256232, "lat": 48.8479679, "lon": 2.3144753}, {"type": "node", "id": 94262684, "lat": 48.8460883, "lon": 2.3142378}, {"type": "node", "id": 94262804, "lat": 48.8464376, "lon": 2.3153669, "tags": {"highway": "traffic_signals"}}, {"type": "node", "id": 130096198, "lat": 48.8471498, "lon": 2.3121304}, {"type": "node", "id": 130096200, "lat": 48.8459809, "lon": 2.3138936, "tags": {"highway": "traffic_signals"}}, {"type": "node", "id": 230012133, "lat": 48.8477955, "lon": 2.3177379}, {"type": "node", "id": 244455407, "lat": 48.8474408, "lon": 2.3162486}, {"type": "node", "id": 296987790, "lat": 48.8479745, "lon": 2.3161383}, {"type": "node", "id": 1215523592, "lat": 48.8470427, "lon": 2.3122534}, {"type": "node", "id": 2734029744, "lat": 48.8490763, "lon": 2.3138745, "tags": {"crossing": "uncontrolled", "crossing:island": "no", "crossing:markings": "zebra", "highway": "crossing", "tactile_paving": "incorrect"}}, {"type": "node", "id": 3724026966, "lat": 48.8470228, "lon": 2.3122819, "tags": {"crossing": "uncontrolled", "crossing:island": "no", "crossing:markings": "zebra", "highway": "crossing", "kerb": "lowered"}}, {"type": "node", "id": 3904907899, "lat": 48.8474916, "lon": 2.3164604, "tags": {"crossing": "uncontrolled", "crossing:island": "no", "crossing:markings": "zebra", "highway": "crossing", "source": "survey", "tactile_paving": "no"}}, {"type": "node", "id": 3904907900, "lat": 48.8479877, "lon": 2.3161935, "tags": {"crossing": "uncontrolled", "crossing:island": "no", "crossing:markings": "zebra", "highway": "crossing", "source": "survey", "tactile_paving": "no"}}, {"type": "node", "id": 4090974143, "lat": 48.8478942, "lon": 2.3145182, "tags": {"button_operated": "no", "crossing": "traffic_signals", "crossing:island": "no", "crossing:markings": "zebra", "highway": "crossing", "tactile_paving": "yes", "traffic_signals:sound": "yes"}}, {"type": "node", "id": 4090974147, "lat": 48.8480302, "lon": 2.3144409, "tags": {"button_operated": "no", "crossing": "traffic_signals", "crossing:island": "no", "crossing:markings": "zebra", "highway": "crossing", "tactile_paving": "yes", "traffic_signals:sound": "yes"}}, {"type": "node", "id": 5586042530, "lat": 48.8470464, "lon": 2.3149952}, {"type": "node", "id": 6222931170, "lat": 48.8465037, "lon": 2.3153265, "tags": {"crossing": "uncontrolled", "crossing:island": "no", "crossing:markings": "zebra", "highway": "crossing", "kerb": "lowered", "tactile_paving": "yes"}}, {"type": "node", "id": 6882789891, "lat": 48.8476326, "lon": 2.3133868, "tags": {"crossing": "uncontrolled", "crossing:island": "no", "crossing:markings": "zebra", "highway": "crossing", "tactile_paving": "yes"}}, {"type": "node", "id": 7649668226, "lat": 48.8464741, "lon": 2.3153445}, {"type": "node", "id": 7649668227, "lat": 48.8461159, "lon": 2.3142228, "tags": {"crossing": "marked", "crossing:markings": "pictograms", "highway": "crossing"}}, {"type": "node", "id": 7649668228, "lat": 48.8460055, "lon": 2.3138587, "tags": {"crossing": "marked", "crossing:markings": "pictograms", "highway": "crossing"}}, {"type": "node", "id": 8129876515, "lat": 48.8472872, "lon": 2.3148593, "tags": {"crossing": "uncontrolled", "crossing:island": "no", "crossing:markings": "zebra", "highway": "crossing"}}, {"type": "node", "id": 10712940014, "lat": 48.8461533, "lon": 2.3142018, "tags": {"crossing": "traffic_signals", "crossing:island": "no", "crossing:markings": "zebra", "crossing:signals": "yes", "highway": "crossing"}}, {"type": "node", "id": 10712940016, "lat": 48.8460564, "lon": 2.3137823, "tags": {"crossing": "uncontrolled", "crossing:island": "no", "crossing:markings": "zebra", "highway": "crossing", "tactile_paving": "yes"}}, {"type": "node", "id": 10721558872, "lat": 48.8491275, "lon": 2.3138567}, {"type": "node", "id": 11451685898, "lat": 48.8460198, "lon": 2.3138375}, {"type": "way", "id": 4262896, "nodes": [25255909, 296987790, 3904907900, 25256197], "tags": {"cycleway:both": "no", "highway": "residential", "lit": "yes", "maxspeed": "30", "name": "Avenue Constant Coquelin", "sidewalk:both": "separate", "smoothness": "good", "source:maxspeed": "FR:urban", "surface": "asphalt"}}, {"type": "way", "id": 8058380, "nodes": [25256231, 6882789891, 10712940014, 7649668227, 94262684], "tags": {"cycleway:both": "no", "highway": "residential", "lit": "yes", "maxspeed": "30", "name": "Rue du G\u00e9n\u00e9ral Bertrand", "name:etymology:wikidata": "Q63475", "oneway": "no", "sidewalk:both": "separate", "smoothness": "good", "source:maxspeed": "FR:urban", "surface": "asphalt"}}, {"type": "way", "id": 8058385, "nodes": [25256232, 4090974147, 2734029744, 10721558872], "tags": {"cycleway:both": "no", "highway": "residential", "maxspeed": "30", "name": "Rue Masseran", "name:etymology:wikidata": "Q3145893", "oneway": "yes", "sidewalk:both": "separate", "source:maxspeed": "FR:urban"}}, {"type": "way", "id": 13861930, "nodes": [130096200, 7649668228, 11451685898, 10712940016, 3724026966, 1215523592, 130096198], "tags": {"highway": "residential", "lanes": "1", "lit": "yes", "maxspeed": "30", "name": "Avenue de Saxe", "name:etymology:wikidata": "Q76723", "oneway": "yes", "sidewalk:right": "separate", "source:maxspeed": "FR:urban", "surface": "asphalt"}}, {"type": "way", "id": 16813661, "nodes": [94262804, 7649668226, 6222931170, 5586042530, 8129876515, 4090974143, 25256232], "tags": {"highway": "residential", "maxspeed": "30", "name": "Rue Maurice de la Sizeranne", "name:etymology:wikidata": "Q2421323", "oneway": "yes", "sidewalk": "separate", "source:maxspeed": "sign", "surface": "asphalt"}}, {"type": "way", "id": 179466175, "nodes": [244455407, 3904907899, 230012133], "tags": {"highway": "residential", "lit": "yes", "maxspeed": "30", "name": "Avenue Daniel Lesueur", "sidewalk": "separate", "smoothness": "good", "source:maxspeed": "FR:urban", "surface": "asphalt"}}]}