{"version": 0.6, "generator": "Overpass API 0.7.62.5 1bd436f1", "osm3s": {"timestamp_osm_base": "2025-04-28T14:44:43Z", "copyright": "The data included in this document is from www.openstreetmap.org. The data is made available under ODbL."}, "elements": [{"type": "node", "id": 3908403548, "lat": 49.4457075, "lon": 1.0928731, "tags": {"addr:housenumber": "92", "entrance": "yes"}}, {"type": "node", "id": 3908418391, "lat": 49.4459665, "lon": 1.0927559, "tags": {"addr:housenumber": "85 ter", "entrance": "yes"}}, {"type": "node", "id": 3908418392, "lat": 49.4459193, "lon": 1.0927274, "tags": {"addr:housenumber": "85 bis", "entrance": "yes"}}, {"type": "node", "id": 3908418393, "lat": 49.445876, "lon": 1.0927012, "tags": {"addr:housenumber": "85", "entrance": "yes"}}, {"type": "node", "id": 3908418395, "lat": 49.4457295, "lon": 1.0926158, "tags": {"addr:housenumber": "81", "entrance": "yes"}}, {"type": "node", "id": 3908418396, "lat": 49.4456672, "lon": 1.092581, "tags": {"addr:housenumber": "79 bis", "entrance": "yes"}}, {"type": "node", "id": 3908418397, "lat": 49.445598, "lon": 1.0925442, "tags": {"addr:housenumber": "79", "entrance": "yes"}}, {"type": "node", "id": 8051313698, "lat": 49.4458, "lon": 1.0929208, "tags": {"addr:housenumber": "92 bis", "entrance": "yes"}}, {"type": "node", "id": 12182272976, "lat": 49.4447988, "lon": 1.0941718, "tags": {"entrance": "yes"}}, {"type": "node", "id": 12182272983, "lat": 49.4455358, "lon": 1.0936469, "tags": {"entrance": "yes"}}]}